[{"OBJECT_NAME":"OBJECT K","OBJECT_ID":"2024-205K","EPOCH":"2026-03-09T22:22:01.331040","MEAN_MOTION":15.27932792,"ECCENTRICITY":0.00106729,"INCLINATION":97.417,"RA_OF_ASC_NODE":146.2172,"ARG_OF_PERICENTER":37.4736,"MEAN_ANOMALY":322.7246,"EPHEMERIS_TYPE":0,"CLASSIFICATION_TYPE":"U","NORAD_CAT_ID":61903,"ELEMENT_SET_NO":999,"REV_AT_EPOCH":7347,"BSTAR":0.00067315144,"MEAN_MOTION_DOT":0.00018331,"MEAN_MOTION_DDOT":0},{"OBJECT_NAME":"STARLINK-34796","OBJECT_ID":"2025-176H","EPOCH":"2026-03-09T22:26:58.007040","MEAN_MOTION":15.30197867,"ECCENTRICITY":0.00012549,"INCLINATION":53.16,"RA_OF_ASC_NODE":151.9,"ARG_OF_PERICENTER":87.3886,"MEAN_ANOMALY":272.7258,"EPHEMERIS_TYPE":0,"CLASSIFICATION_TYPE":"U","NORAD_CAT_ID":65205,"ELEMENT_SET_NO":999,"REV_AT_EPOCH":3315,"BSTAR":0.00096194988,"MEAN_MOTION_DOT":0.00028237,"MEAN_MOTION_DDOT":0}]
